0 IRIDIUM 33 DEB
1 38237U 97051ZM  13282.34389154  .00012512  00000-0  37644-2 0  2044
2 38237 086.3943 132.1413 0026983 317.4883 166.3419 14.42323009555323
0 IRIDIUM 33 DEB
1 38237U 97051ZM  13283.38349662  .00010486  00000-0  31543-2 0  2050
2 38237 086.3929 131.7018 0026601 314.2404 164.1805 14.42336127555470
0 IRIDIUM 33 DEB
1 38237U 97051ZM  13285.32757093  .00007908  00000-0  23774-2 0  2071
2 38237 086.3944 130.8756 0026235 307.5576 178.9573 14.42360608555751
0 IRIDIUM 33 DEB
1 38237U 97051ZM  13287.33922749  .00008551  00000-0  25698-2 0  2089
2 38237 086.3938 130.0231 0025891 300.8816 184.6097 14.42385868556047
0 IRIDIUM 33 DEB
1 38237U 97051ZM  13287.81266499  .00010892  00000-0  32733-2 0  2095
2 38237 086.3930 129.8232 0025837 299.1598 123.1438 14.42395387556115
0 IRIDIUM 33 DEB
1 38237U 97051ZM  13289.34985338  .00010662  00000-0  32025-2 0  2106
2 38237 086.3924 129.1716 0025637 293.8625 185.4984 14.42424800556332
0 IRIDIUM 33 DEB
1 38237U 97051ZM  13290.32169218  .00011096  00000-0  33320-2 0  2119
2 38237 086.3925 128.7599 0025571 290.5174 192.1591 14.42439041556474
0 IRIDIUM 33 DEB
1 38237U 97051ZM  13292.33355563  .00009104  00000-0  27320-2 0  2123
2 38237 086.3923 127.9050 0025164 283.2235 200.1030 14.42471066556763
0 IRIDIUM 33 DEB
1 38237U 97051ZM  13294.34422635  .00010661  00000-0  31978-2 0  2136
2 38237 086.3916 127.0541 0025069 276.0228 201.9849 14.42498783557052
0 IRIDIUM 33 DEB
1 38237U 97051ZM  13295.85856604  .00011229  00000-0  33664-2 0  2146
2 38237 086.3926 126.4111 0024964 270.7965 146.2464 14.42524159557276
